API VERSION: 1.2
API SOURCE: NASA/JPL Horizons API



*******************************************************************************
Ephemeris / API_USER Fri Apr  3 11:29:09 2026 Pasadena, USA      / Horizons
*******************************************************************************
Target body name: Venus (299)                     {source: DE441}
Center body name: Earth (399)                     {source: DE441}
Center-site name: BODY CENTER
*******************************************************************************
Start time      : A.D. 2025-Jan-15 20:37:00.0002 TDB
Stop  time      : A.D. 2025-Jan-17 20:37:00.0002 TDB
Step-size       : 60 minutes
*******************************************************************************
Center geodetic : 0.0, 0.0, 0.0                   {E-lon(deg),Lat(deg),Alt(km)}
Center cylindric: 0.0, 0.0, 0.0                   {E-lon(deg),Dxy(km),Dz(km)}
Center radii    : 6378.137, 6378.137, 6356.752 km {Equator_a, b, pole_c}
Output units    : AU-D
Calendar mode   : Mixed Julian/Gregorian
Output type     : GEOMETRIC cartesian states
Output format   : 3 (position, velocity, LT, range, range-rate)
EOP file        : eop.260402.p260629
EOP coverage    : DATA-BASED 1962-JAN-20 TO 2026-APR-02. PREDICTS-> 2026-JUN-28
Reference frame : Ecliptic of J2000.0
*******************************************************************************
            JDTDB,            Calendar Date (TDB),                      X,                      Y,                      Z,                     VX,                     VY,                     VZ,                     LT,                     RG,                     RR,
**************************************************************************************************************************************************************************************************************************************************************************
$$SOE
2460691.359027780, A.D. 2025-Jan-15 20:37:00.0002,  6.116668828663075E-01, -1.909583306955104E-01, -1.151406060140026E-03, -3.815149078277477E-03,  1.263202442909095E-02,  1.200768091660871E-03,  3.700853657895125E-03,  6.407829471773702E-01, -7.408395050512946E-03,
2460691.400694447, A.D. 2025-Jan-15 21:37:00.0002,  6.115076767517088E-01, -1.904322357350848E-01, -1.101373336059739E-03, -3.826741308348553E-03,  1.262053181803670E-02,  1.200802397118589E-03,  3.699070876488240E-03,  6.404742681455365E-01, -7.408198182188986E-03,
2460691.442361114, A.D. 2025-Jan-15 22:37:00.0002,  6.113479880168390E-01, -1.899066198649252E-01, -1.051339215968824E-03, -3.838314850068925E-03,  1.260902810090205E-02,  1.200835100190549E-03,  3.697288142670192E-03,  6.401655973534547E-01, -7.407999542661002E-03,
2460691.484027780, A.D. 2025-Jan-15 23:37:00.0002,  6.111878174405314E-01, -1.893814835472132E-01, -1.001303766631372E-03, -3.849869696152965E-03,  1.259751330510252E-02,  1.200866200968340E-03,  3.695505456867049E-03,  6.398569348748959E-01, -7.407799133294135E-03,
2460691.525694447, A.D. 2025-Jan-16 00:37:00.0002,  6.110271658019220E-01, -1.888568272429901E-01, -9.512670548076523E-04, -3.861405839347046E-03,  1.258598745800599E-02,  1.200895699540157E-03,  3.693722819504557E-03,  6.395482807835758E-01, -7.407596955427844E-03,
2460691.567361114, A.D. 2025-Jan-16 01:37:00.0002,  6.108660338804485E-01, -1.883326514121569E-01, -9.012291472546223E-04, -3.872923272428718E-03,  1.257445058693311E-02,  1.200923595990845E-03,  3.691940231008140E-03,  6.392396351531544E-01, -7.407393010375431E-03,
2460691.609027780, A.D. 2025-Jan-16 02:37:00.0002,  6.107044224558488E-01, -1.878089565134776E-01, -8.511901107256651E-04, -3.884421988205941E-03,  1.256290271915775E-02,  1.200949890401955E-03,  3.690157691802910E-03,  6.389309980572376E-01, -7.407187299423645E-03,
2460691.650694447, A.D. 2025-Jan-16 03:37:00.0002,  6.105423323081599E-01, -1.872857430045809E-01, -8.011500119706784E-04, -3.895901979516368E-03,  1.255134388190752E-02,  1.200974582851773E-03,  3.688375202313674E-03,  6.386223695693779E-01, -7.406979823832336E-03,
2460691.692361114, A.D. 2025-Jan-16 04:37:00.0002,  6.103797642177169E-01, -1.867630113419615E-01, -7.511089177364838E-04, -3.907363239226562E-03,  1.253977410236419E-02,  1.200997673415379E-03,  3.686592762964935E-03,  6.383137497630766E-01, -7.406770584833995E-03,
2460691.734027780, A.D. 2025-Jan-16 05:37:00.0002,  6.102167189651510E-01, -1.862407619809832E-01, -7.010668947668030E-04, -3.918805760231276E-03,  1.252819340766421E-02,  1.201019162164684E-03,  3.684810374180909E-03,  6.380051387117835E-01, -7.406559583633452E-03,
2460691.775694447, A.D. 2025-Jan-16 06:37:00.0002,  6.100531973313892E-01, -1.857189953758794E-01, -6.510240098025689E-04, -3.930229535452774E-03,  1.251660182489919E-02,  1.201039049168494E-03,  3.683028036385518E-03,  6.376965364888993E-01, -7.406346821407482E-03,
2460691.817361114, A.D. 2025-Jan-16 07:37:00.0002,  6.098892000976527E-01, -1.851977119797558E-01, -6.009803295815883E-04, -3.941634557840113E-03,  1.250499938111642E-02,  1.201057334492540E-03,  3.681245750002410E-03,  6.373879431677758E-01, -7.406132299304499E-03,
2460691.859027780, A.D. 2025-Jan-16 08:37:00.0002,  6.097247280454560E-01, -1.846769122445922E-01, -5.509359208393904E-04, -3.953020820368452E-03,  1.249338610331939E-02,  1.201074018199541E-03,  3.679463515454957E-03,  6.370793588217176E-01, -7.405916018444194E-03,
2460691.900694447, A.D. 2025-Jan-16 09:37:00.0002,  6.095597819566060E-01, -1.841565966212437E-01, -5.008908503088147E-04, -3.964388316038452E-03,  1.248176201846827E-02,  1.201089100349247E-03,  3.677681333166267E-03,  6.367707835239841E-01, -7.405697979917273E-03,
2460691.942361114, A.D. 2025-Jan-16 10:37:00.0002,  6.093943626132005E-01, -1.836367655594439E-01, -4.508451847200483E-04, -3.975737037875551E-03,  1.247012715348048E-02,  1.201102580998496E-03,  3.675899203559189E-03,  6.364622173477884E-01, -7.405478184785121E-03,
2460691.984027780, A.D. 2025-Jan-16 11:37:00.0002,  6.092284707976274E-01, -1.831174195078046E-01, -4.007989908012368E-04, -3.987066978929405E-03,  1.245848153523121E-02,  1.201114460201258E-03,  3.674117127056319E-03,  6.361536603663017E-01, -7.405256634079534E-03,
2460692.025694447, A.D. 2025-Jan-16 12:37:00.0002,  6.090621072925635E-01, -1.825985589138194E-01, -3.507523352781972E-04, -3.998378132273243E-03,  1.244682519055396E-02,  1.201124738008702E-03,  3.672335104080006E-03,  6.358451126526511E-01, -7.405033328802466E-03,
2460692.067361114, A.D. 2025-Jan-16 13:37:00.0002,  6.088952728809742E-01, -1.820801842238645E-01, -3.007052848747792E-04, -4.009670491003264E-03,  1.243515814624109E-02,  1.201133414469224E-03,  3.670553135052368E-03,  6.355365742799235E-01, -7.404808269925751E-03,
2460692.109027780, A.D. 2025-Jan-16 14:37:00.0002,  6.087279683461118E-01, -1.815622958832005E-01, -2.506579063127284E-04, -4.020944048238086E-03,  1.242348042904437E-02,  1.201140489628528E-03,  3.668771220395286E-03,  6.352280453211663E-01, -7.404581458390868E-03,
2460692.150694447, A.D. 2025-Jan-16 15:37:00.0002,  6.085601944715149E-01, -1.810448943359743E-01, -2.006102663121221E-04, -4.032198797118169E-03,  1.241179206567557E-02,  1.201145963529660E-03,  3.666989360530423E-03,  6.349195258493876E-01, -7.404352895108739E-03,
2460692.192361114, A.D. 2025-Jan-16 16:37:00.0002,  6.083919520410074E-01, -1.805279800252206E-01, -1.505624315910948E-04, -4.043434730805262E-03,  1.240009308280697E-02,  1.201149836213070E-03,  3.665207555879222E-03,  6.346110159375581E-01, -7.404122580959487E-03,
2460692.234027780, A.D. 2025-Jan-16 17:37:00.0002,  6.082232418386979E-01, -1.800115533928635E-01, -1.005144688662501E-04, -4.054651842481867E-03,  1.238838350707197E-02,  1.201152107716669E-03,  3.663425806862923E-03,  6.343025156586133E-01, -7.403890516792228E-03,
2460692.275694447, A.D. 2025-Jan-16 18:37:00.0002,  6.080540646489785E-01, -1.794956148797183E-01, -5.046644485279662E-05, -4.065850125350759E-03,  1.237666336506566E-02,  1.201152778075872E-03,  3.661644113902561E-03,  6.339940250854532E-01, -7.403656703424923E-03,
2460692.317361114, A.D. 2025-Jan-16 19:37:00.0002,  6.078844212565240E-01, -1.789801649254928E-01, -4.184262643120903E-07, -4.077029572634453E-03,  1.236493268334538E-02,  1.201151847323678E-03,  3.659862477418980E-03,  6.336855442909447E-01, -7.403421141644182E-03,
2460692.359027780, A.D. 2025-Jan-16 20:37:00.0002,  6.077143124462915E-01, -1.784652039687893E-01,  4.962952018697049E-05, -4.088190177574738E-03,  1.235319148843132E-02,  1.201149315490696E-03,  3.658080897832840E-03,  6.333770733479225E-01, -7.403183832205095E-03,
2460692.400694447, A.D. 2025-Jan-16 21:37:00.0002,  6.075437390035189E-01, -1.779507324471057E-01,  9.967732778975194E-05, -4.099331933432207E-03,  1.234143980680709E-02,  1.201145182605219E-03,  3.656299375564620E-03,  6.330686123291906E-01, -7.402944775831100E-03,
2460692.442361114, A.D. 2025-Jan-16 22:37:00.0002,  6.073727017137249E-01, -1.774367507968369E-01,  1.497249298342023E-04, -4.110454833485809E-03,  1.232967766492030E-02,  1.201139448693277E-03,  3.654517911034631E-03,  6.327601613075233E-01, -7.402703973213833E-03,
2460692.484027780, A.D. 2025-Jan-16 23:37:00.0002,  6.072012013627077E-01, -1.769232594532769E-01,  1.997722596114255E-04, -4.121558871032424E-03,  1.231790508918320E-02,  1.201132113778699E-03,  3.652736504663019E-03,  6.324517203556671E-01, -7.402461425013024E-03,
2460692.525694447, A.D. 2025-Jan-17 00:37:00.0002,  6.070292387365444E-01, -1.764102588506198E-01,  2.498192504132848E-04, -4.132644039386418E-03,  1.230612210597319E-02,  1.201123177883150E-03,  3.650955156869777E-03,  6.321432895463409E-01, -7.402217131856370E-03,
2460692.567361114, A.D. 2025-Jan-17 01:37:00.0002,  6.068568146215904E-01, -1.758977494219615E-01,  2.998658355327643E-04, -4.143710331879261E-03,  1.229432874163349E-02,  1.201112641026212E-03,  3.649173868074751E-03,  6.318348689522396E-01, -7.401971094339427E-03,
